{
  "type": "FeatureCollection",
  "features": [
    {
      "type": "Feature",
      "properties": {
        "norad_id": 34079,
        "name": "IRIDIUM 33 DEB",
        "group": "iridium-33-debris",
        "lat": 19.39276082301215,
        "lon": -175.00082698008464,
        "alt_km": 621.5125146421324,
        "timestamp": "2025-12-17T23:38:07.238535+00:00",
        "meta_object_name": "IRIDIUM 33 DEB",
        "meta_object_id": "1997-051CN",
        "meta_epoch": "2025-12-17T15:26:44.871360",
        "meta_mean_motion": 14.83653383,
        "meta_eccentricity": 0.00049684,
        "meta_inclination": 86.3772,
        "meta_ra_of_asc_node": 6.4323,
        "meta_arg_of_pericenter": 351.2677,
        "meta_mean_anomaly": 147.8117,
        "meta_ephemeris_type": 0,
        "meta_classification_type": "U",
        "meta_norad_cat_id": 34079,
        "meta_element_set_no": 999,
        "meta_rev_at_epoch": 89050,
        "meta_bstar": 0.0012246338,
        "meta_mean_motion_dot": 0.00010139,
        "meta_mean_motion_ddot": 0,
        "tle_line1": "1 34079U 97051CN  25351.64357490  .00010139  00000+0  12246-2 0  9999",
        "tle_line2": "2 34079  86.3772   6.4323 0004968 351.2677 147.8117 14.83653383890509"
      },
      "geometry": {
        "type": "Point",
        "coordinates": [
          -175.00082698008464,
          19.39276082301215
        ]
      }
    },
    {
      "type": "Feature",
      "properties": {
        "norad_id": 34088,
        "name": "IRIDIUM 33 DEB",
        "group": "iridium-33-debris",
        "lat": 40.73990438563064,
        "lon": 31.435983843690416,
        "alt_km": 591.8449447068779,
        "timestamp": "2025-12-17T23:38:07.238545+00:00",
        "meta_object_name": "IRIDIUM 33 DEB",
        "meta_object_id": "1997-051CX",
        "meta_epoch": "2025-12-17T14:19:35.325696",
        "meta_mean_motion": 14.91604153,
        "meta_eccentricity": 0.00061939,
        "meta_inclination": 86.3846,
        "meta_ra_of_asc_node": 28.4923,
        "meta_arg_of_pericenter": 160.6797,
        "meta_mean_anomaly": 318.9134,
        "meta_ephemeris_type": 0,
        "meta_classification_type": "U",
        "meta_norad_cat_id": 34088,
        "meta_element_set_no": 999,
        "meta_rev_at_epoch": 88814,
        "meta_bstar": 0.0018284036,
        "meta_mean_motion_dot": 0.00018404,
        "meta_mean_motion_ddot": 0,
        "tle_line1": "1 34088U 97051CX  25351.59693664  .00018404  00000+0  18284-2 0  9990",
        "tle_line2": "2 34088  86.3846  28.4923 0006193 160.6797 318.9134 14.91604153888145"
      },
      "geometry": {
        "type": "Point",
        "coordinates": [
          31.435983843690416,
          40.73990438563064
        ]
      }
    },
    {
      "type": "Feature",
      "properties": {
        "norad_id": 34091,
        "name": "IRIDIUM 33 DEB",
        "group": "iridium-33-debris",
        "lat": 47.86110727418227,
        "lon": 68.48547242646933,
        "alt_km": 634.4955984556045,
        "timestamp": "2025-12-17T23:38:07.238555+00:00",
        "meta_object_name": "IRIDIUM 33 DEB",
        "meta_object_id": "1997-051DA",
        "meta_epoch": "2025-12-17T15:19:03.336384",
        "meta_mean_motion": 14.82177914,
        "meta_eccentricity": 0.00335984,
        "meta_inclination": 86.3425,
        "meta_ra_of_asc_node": 64.5903,
        "meta_arg_of_pericenter": 275.4522,
        "meta_mean_anomaly": 84.2868,
        "meta_ephemeris_type": 0,
        "meta_classification_type": "U",
        "meta_norad_cat_id": 34091,
        "meta_element_set_no": 999,
        "meta_rev_at_epoch": 87939,
        "meta_bstar": 0.0032441894,
        "meta_mean_motion_dot": 0.00026188,
        "meta_mean_motion_ddot": 0,
        "tle_line1": "1 34091U 97051DA  25351.63823306  .00026188  00000+0  32442-2 0  9997",
        "tle_line2": "2 34091  86.3425  64.5903 0033598 275.4522  84.2868 14.82177914879395"
      },
      "geometry": {
        "type": "Point",
        "coordinates": [
          68.48547242646933,
          47.86110727418227
        ]
      }
    },
    {
      "type": "Feature",
      "properties": {
        "norad_id": 34097,
        "name": "IRIDIUM 33 DEB",
        "group": "iridium-33-debris",
        "lat": 53.69780453376507,
        "lon": 173.90299584983683,
        "alt_km": 816.1587801354935,
        "timestamp": "2025-12-17T23:38:07.238566+00:00",
        "meta_object_name": "IRIDIUM 33 DEB",
        "meta_object_id": "1997-051DG",
        "meta_epoch": "2025-12-17T11:20:07.236672",
        "meta_mean_motion": 14.34815028,
        "meta_eccentricity": 0.00821238,
        "meta_inclination": 86.2003,
        "meta_ra_of_asc_node": 359.3194,
        "meta_arg_of_pericenter": 346.7469,
        "meta_mean_anomaly": 13.1567,
        "meta_ephemeris_type": 0,
        "meta_classification_type": "U",
        "meta_norad_cat_id": 34097,
        "meta_element_set_no": 999,
        "meta_rev_at_epoch": 87187,
        "meta_bstar": 0.0011502417,
        "meta_mean_motion_dot": 3.407e-05,
        "meta_mean_motion_ddot": 0,
        "tle_line1": "1 34097U 97051DG  25351.47230598  .00003407  00000+0  11502-2 0  9993",
        "tle_line2": "2 34097  86.2003 359.3194 0082123 346.7469  13.1567 14.34815028871873"
      },
      "geometry": {
        "type": "Point",
        "coordinates": [
          173.90299584983683,
          53.69780453376507
        ]
      }
    },
    {
      "type": "Feature",
      "properties": {
        "norad_id": 34145,
        "name": "IRIDIUM 33 DEB",
        "group": "iridium-33-debris",
        "lat": 2.9221220158782875,
        "lon": 149.99677024302883,
        "alt_km": 760.0736489034716,
        "timestamp": "2025-12-17T23:38:07.238576+00:00",
        "meta_object_name": "IRIDIUM 33 DEB",
        "meta_object_id": "1997-051DY",
        "meta_epoch": "2025-12-17T09:30:10.692576",
        "meta_mean_motion": 14.42321969,
        "meta_eccentricity": 0.00557549,
        "meta_inclination": 86.2111,
        "meta_ra_of_asc_node": 330.4528,
        "meta_arg_of_pericenter": 79.0556,
        "meta_mean_anomaly": 281.691,
        "meta_ephemeris_type": 0,
        "meta_classification_type": "U",
        "meta_norad_cat_id": 34145,
        "meta_element_set_no": 999,
        "meta_rev_at_epoch": 87705,
        "meta_bstar": 0.00088673029,
        "meta_mean_motion_dot": 3.002e-05,
        "meta_mean_motion_ddot": 0,
        "tle_line1": "1 34145U 97051DY  25351.39595709  .00003002  00000+0  88673-3 0  9991",
        "tle_line2": "2 34145  86.2111 330.4528 0055754  79.0556 281.6910 14.42321969877056"
      },
      "geometry": {
        "type": "Point",
        "coordinates": [
          149.99677024302883,
          2.9221220158782875
        ]
      }
    },
    {
      "type": "Feature",
      "properties": {
        "norad_id": 34146,
        "name": "IRIDIUM 33 DEB",
        "group": "iridium-33-debris",
        "lat": -58.17087061235046,
        "lon": -18.527631162366223,
        "alt_km": 738.4637965754728,
        "timestamp": "2025-12-17T23:38:07.238587+00:00",
        "meta_object_name": "IRIDIUM 33 DEB",
        "meta_object_id": "1997-051DZ",
        "meta_epoch": "2025-12-17T11:21:07.085952",
        "meta_mean_motion": 14.49080769,
        "meta_eccentricity": 0.0025896,
        "meta_inclination": 86.2831,
        "meta_ra_of_asc_node": 347.7097,
        "meta_arg_of_pericenter": 205.0679,
        "meta_mean_anomaly": 308.1065,
        "meta_ephemeris_type": 0,
        "meta_classification_type": "U",
        "meta_norad_cat_id": 34146,
        "meta_element_set_no": 999,
        "meta_rev_at_epoch": 88175,
        "meta_bstar": 0.00069792475,
        "meta_mean_motion_dot": 2.681e-05,
        "meta_mean_motion_ddot": 0,
        "tle_line1": "1 34146U 97051DZ  25351.47299868  .00002681  00000+0  69792-3 0  9991",
        "tle_line2": "2 34146  86.2831 347.7097 0025896 205.0679 308.1065 14.49080769881754"
      },
      "geometry": {
        "type": "Point",
        "coordinates": [
          -18.527631162366223,
          -58.17087061235046
        ]
      }
    },
    {
      "type": "Feature",
      "properties": {
        "norad_id": 34159,
        "name": "IRIDIUM 33 DEB",
        "group": "iridium-33-debris",
        "lat": 3.172736314078718,
        "lon": -134.19769773545738,
        "alt_km": 766.8648079599325,
        "timestamp": "2025-12-17T23:38:07.238598+00:00",
        "meta_object_name": "IRIDIUM 33 DEB",
        "meta_object_id": "1997-051EN",
        "meta_epoch": "2025-12-17T14:27:59.153472",
        "meta_mean_motion": 14.38505774,
        "meta_eccentricity": 0.00259211,
        "meta_inclination": 86.3501,
        "meta_ra_of_asc_node": 46.1679,
        "meta_arg_of_pericenter": 270.5644,
        "meta_mean_anomaly": 89.2584,
        "meta_ephemeris_type": 0,
        "meta_classification_type": "U",
        "meta_norad_cat_id": 34159,
        "meta_element_set_no": 999,
        "meta_rev_at_epoch": 88029,
        "meta_bstar": 0.00031875512,
        "meta_mean_motion_dot": 9.96e-06,
        "meta_mean_motion_ddot": 0,
        "tle_line1": "1 34159U 97051EN  25351.60276798  .00000996  00000+0  31876-3 0  9996",
        "tle_line2": "2 34159  86.3501  46.1679 0025921 270.5644  89.2584 14.38505774880294"
      },
      "geometry": {
        "type": "Point",
        "coordinates": [
          -134.19769773545738,
          3.172736314078718
        ]
      }
    }
  ]
}